0261P         2025 12 27.0905  2.013284  0.423191   67.3262  291.0780    6.0718  20231103  14.0  4.0  261P/Larson                                              MPEC 2021-J28
0262P         2030 12 12.5863  1.261281  0.816413  171.0524  217.8886   29.2797  20231103  13.5  4.0  262P/McNaught-Russell                                    MPC 82322
0263P         2023 01 30.5887  1.236069  0.593611   35.0402  105.5029   11.5226  20231103  18.0  4.0  263P/Gibbs                                               MPEC 2023_O39
0264P         2027 03  8.4088  2.475008  0.367837  344.6088  219.6485   26.0487  20231103  13.0  4.0  264P/Larsen                                              MPC114608
0265P         2021 02  9.2615  1.501115  0.647477   33.4943  342.9541   14.3595  20231103  14.5  4.0  265P/LINEAR                                              MPC 79870
0266P         2026 12  7.5234  2.328526  0.340391   97.6790    4.9764    3.4270  20231103  14.7  4.0  266P/Christensen                                         MPEC 2021-F20
0267P         2024 04 24.8029  1.237985  0.614272  114.2230  228.6032    6.1430  20231103  19.5  4.0  267P/LONEOS                                              MPC114608
0268P         2024 12 17.6924  2.440911  0.473541  359.8819  124.9101   15.6276  20231103  14.0  4.0  268P/Bernardi                                            MPC 92277
0269P         2014 10  2.6155  4.009579  0.432422  225.6595  241.7673    7.0839  20231103  10.0  4.0  269P/Jedicke                                             MPEC 2023-J29
0270P         2030 08 16.0230  3.528925  0.469720  209.8071  223.0344    2.9250  20231103   8.0  4.0  270P/Gehrels                                             MPC 88332
0271P         2032 03 18.2465  4.247450  0.396122   36.4595    9.3379    6.8719  20231103  11.0  4.0  271P/van Houten-Lemmon                                   MPC 92277
0272P         2022 07 17.0241  2.431514  0.455029   27.8845  109.4515   18.0744  20231103  16.0  2.0  272P/NEAT                                                MPEC 2023-D41
0273P         2012 12 20.4612  0.829260  0.974113   20.3403  320.4122   36.6520  20231103  11.5  4.0  273P/Pons-Gambart                                        MPC 82723
0274P         2022 04  8.5280  2.452337  0.439807   38.4690   81.3206   15.8180  20231103  13.9  4.0  274P/Tombaugh-Tenagra                                    MPEC 2023-M14
0275P         2026 10 28.8587  1.659401  0.713200  173.9426  348.6994   21.2627  20231103  17.0  4.0  275P/Hermann                                             MPC 81862
0276P         2024 12 11.8589  3.898422  0.268788  199.3944  211.3395   14.8126  20231103  11.5  4.0  276P/Vorobjov                                            MPEC 2023-UR6
0277P         2020 12 30.7629  1.902111  0.506388  152.3686  276.2800   16.7844  20231103  15.1  4.0  277P/LINEAR                                              MPEC 2021-F20
0278P         2020 09 12.1481  2.063207  0.438689  237.4715   15.3149    6.6879  20231103  14.0  4.0  278P/McNaught                                            MPEC 2021-S45
0279P         2023 04 19.4435  2.147640  0.399415    5.8298  346.2017    5.0493  20231103  14.0  4.0  279P/LaSagra                                             MPEC 2023-UR6
0280P         2023 08  4.6863  2.640138  0.417018  104.7328  131.3781   11.7724  20231103  12.5  4.0  280P/Larsen                                              MPEC 2023-J95
0281P         2023 02  1.8586  4.034577  0.173368   26.7007   87.1729    4.7177  20231103  11.0  4.0  281P/MOSS                                                MPEC 2023-D41
0282P         2021 10 24.1402  3.441591  0.187796    9.2593  217.6218    5.8118  20231103  13.5  2.0  282P                                                     MPC133426
0283P         2021 09  7.7144  2.131686  0.484365   22.1879  161.1235   14.4575  20231103  16.0  2.0  283P/Spacewatch                                          MPEC 2022-K19
0284P         2021 09 12.4589  2.297866  0.375077  202.4647  144.2676   11.8591  20231103  13.0  4.0  284P/McNaught                                            MPEC 2023-D41
0285P         2023 01 12.1990  1.719160  0.618557  178.3919  185.5030   25.0374  20231103  15.0  4.0  285P/LINEAR                                              MPEC 2023-B57
0286P         2022 05 12.2468  2.355951  0.426581   24.8441  283.7214   17.0678  20231103  14.0  4.0  286P/Christensen                                         MPEC 2022-X67
0287P         2023 07  6.3293  3.034321  0.271507  189.1805  139.0400   16.3200  20231103  13.5  4.0  287P/Christensen                                         MPEC 2023-T65
0288P         2022 03  1.6748  2.437907  0.200328  280.2630   83.1079    3.2384  20231103  16.0  2.0  288P                                                     MPC133426
0289P         2025 04 14.3516  0.955105  0.686318    9.8486   68.8921    5.9002  20231103  19.7  4.0  289P/Blanpain                                            MPEC 2023-HD1
0290P         2029 07 23.1370  2.314382  0.627694  181.8187  302.6818   20.0531  20231103  10.5  4.0  290P/Jager                                               MPC 95214
0291P         2023 05  4.0414  2.565255  0.434305  173.5076  237.6597    6.3097  20231103  13.0  4.0  291P/NEAT                                                MPEC 2023-UR6
0292P         2029 03  2.6306  2.501177  0.589944  319.5869   90.9064   24.3085  20231103  12.5  4.0  292P/Li                                                  MPEC 2022-K19
0293P         2020 12 19.3987  2.115233  0.418837   40.9521   78.3646    9.0610  20231103  14.5  4.0  293P/Spacewatch                                          MPEC 2022-L66
0294P         2025 08 11.2357  1.270978  0.601736  235.5024  311.7992   18.1578  20231103  15.5  4.0  294P/LINEAR                                              MPEC 2020-SI8
0295P         2026 07 22.7905  2.028884  0.617437   72.9320    7.4195   21.0756  20231103  12.0  4.0  295P/LINEAR                                              MPEC 2022-K19
0296P         2020 09 17.2962  1.816369  0.479509  349.9307  263.5276   25.2767  20231103  14.0  4.0  296P/Garradd                                             MPEC 2021-N06
0297P         2021 02  2.3416  2.373408  0.319247  136.4693   96.0521   10.3837  20231103  15.0  4.0  297P/Beshore                                             MPC102956
0298P         2020 09  5.6284  2.202901  0.386308  100.5968   52.8130    7.8706  20231103  15.0  4.0  298P/Christensen                                         MPC114609
0299P         2024 04 30.5031  3.156249  0.280911  323.7133  271.5871   10.4673  20231103  11.5  4.0  299P/Catalina-PANSTARRS                                  MPEC 2023-OA6
0300P         2023 04 11.1143  0.831867  0.691728  222.9468   95.6169    5.6748  20231103  16.0  4.0  300P/Catalina                                            MPEC 2023-J95
0301P         2028 05 19.6018  2.379839  0.585689  193.5367  351.0920   10.3350  20231103  13.0  4.0  301P/LINEAR-NEAT                                         MPC 89014
0302P         2025 03  9.0693  3.288716  0.230033  208.5738  121.7194    6.0341  20231103  12.5  4.0  302P/Lemmon-PANSTARRS                                    MPEC 2023-N01
0303P         2026 02 19.6330  2.467030  0.510726  356.9901  347.9879    7.0182  20231103  13.5  4.0  303P/NEAT                                                MPC 92278
0304P         2026 03 17.9017  1.256964  0.601027  335.2514   58.9402    2.6065  20231103  16.5  4.0  304P/Ory                                                 MPEC 2022-K19
0305P         2024 11 17.0987  1.418942  0.694028  147.3607  240.1468   11.6667  20231103  18.0  4.0  305P/Skiff                                               MPC101100
0306P         2025 08  1.4913  1.271904  0.592905    0.8893  341.3779    8.3065  20231103  19.0  4.0  306P/LINEAR                                              MPC 92278
0307P         2028 11 30.7036  1.877973  0.675566  222.1739  158.1816    4.4374  20231103  15.0  4.0  307P/LINEAR                                              MPC 92278
0308P         2015 05 13.6430  4.192114  0.364761  333.6704   63.0966    4.8532  20231103  13.0  2.0  308P/Lagerkvist-Carsenty                                 MPEC 2022-C56
0309P         2024 03 29.0304  1.669631  0.618420   49.9292   10.1446   17.0235  20231103  15.0  4.0  309P/LINEAR                                              MPEC 2023-UR6
0310P         2023 10 23.6552  2.416702  0.423022   31.6067    8.9174   13.1222  20231103  13.5  4.0  310P/Hill                                                MPEC 2023-UR6
0311P         2024 01  2.0500  1.935197  0.115987  144.3050  279.1823    4.9698  20231103  17.0  4.0  311P/PANSTARRS                                           MPEC 2023-UR6
0312P         2020 09 25.1206  1.987335  0.427380  207.6515  144.7058   19.7616  20231103  16.0  4.0  312P/NEAT                                                MPEC 2021-BE3
0313P         2025 12  2.3332  2.421142  0.234826  254.8511  106.0055   10.9802  20231103  15.0  4.0  313P/Gibbs                                               MPEC 2021-S45
0314P         2016 10  8.9821  4.225520  0.417463  213.8646  267.6119    3.9892  20231103   9.5  4.0  314P/Montani                                             MPC105243
0315P         2027 11 17.3030  2.364306  0.521340   65.7739   68.7222   17.7326  20231103  11.0  4.0  315P/LONEOS                                              MPEC 2023-J29
0316P         2024 10 26.5032  3.716137  0.157531  243.8286  192.2362    9.8191  20231103  13.5  4.0  316P/LONEOS-Christensen                                  MPC 92279
0317P         2025 10 31.4436  1.270627  0.570987  334.8191  275.4695   11.9610  20231103  17.5  4.0  317P/WISE                                                MPEC 2020-C98
0318P         2015 10 26.0882  2.443086  0.674614  313.3181   35.5570   17.8758  20231103   8.5  6.0  318P/McNaught-Hartley                                    MPC102103
